{
    "links": {
        "self": "http://www.neowsapp.com/rest/v1/neo/3745104?api_key=iIulBulltgU6a56xZRHN4H3l9WmuAYTsLGpBGhQ2"
    },
    "id": "3745104",
    "neo_reference_id": "3745104",
    "name": "(2016 ED27)",
    "designation": "2016 ED27",
    "nasa_jpl_url": "http://ssd.jpl.nasa.gov/sbdb.cgi?sstr=3745104",
    "absolute_magnitude_h": 23.9,
    "estimated_diameter": {
        "kilometers": {
            "estimated_diameter_min": 0.04411182,
            "estimated_diameter_max": 0.0986370281
        },
        "meters": {
            "estimated_diameter_min": 44.1118199997,
            "estimated_diameter_max": 98.6370281305
        },
        "miles": {
            "estimated_diameter_min": 0.0274098057,
            "estimated_diameter_max": 0.0612901888
        },
        "feet": {
            "estimated_diameter_min": 144.7238235278,
            "estimated_diameter_max": 323.6123073718
        }
    },
    "is_potentially_hazardous_asteroid": false,
    "close_approach_data": [
        {
            "close_approach_date": "2016-02-13",
            "close_approach_date_full": "2016-Feb-13 19:37",
            "epoch_date_close_approach": 1455392220000,
            "relative_velocity": {
                "kilometers_per_second": "13.3829760555",
                "kilometers_per_hour": "48178.7137998616",
                "miles_per_hour": "29936.3791385862"
            },
            "miss_distance": {
                "astronomical": "0.1370411606",
                "lunar": "53.3090114734",
                "kilometers": "20501065.728087922",
                "miles": "12738771.5387484436"
            },
            "orbiting_body": "Earth"
        }
    ],
    "orbital_data": {
        "orbit_id": "3",
        "orbit_determination_date": "2017-04-06 08:27:50",
        "first_observation_date": "2016-03-03",
        "last_observation_date": "2016-03-05",
        "data_arc_in_days": 2,
        "observations_used": 17,
        "orbit_uncertainty": "9",
        "minimum_orbit_intersection": ".113014",
        "jupiter_tisserand_invariant": "3.888",
        "epoch_osculation": "2457451.5",
        "eccentricity": ".525272178796078",
        "semi_major_axis": "1.779488575205268",
        "inclination": "14.43295263148905",
        "ascending_node_longitude": "353.1012329885058",
        "orbital_period": "867.0441911106059",
        "perihelion_distance": ".8447727341644684",
        "perihelion_argument": "87.69329336366646",
        "aphelion_distance": "2.714204416246068",
        "perihelion_time": "2457384.571784101991",
        "mean_anomaly": "27.78884625525348",
        "mean_motion": ".4152037505018888",
        "equinox": "J2000",
        "orbit_class": {
            "orbit_class_type": "APO",
            "orbit_class_description": "Near-Earth asteroid orbits which cross the Earth’s orbit similar to that of 1862 Apollo",
            "orbit_class_range": "a (semi-major axis) > 1.0 AU; q (perihelion) < 1.017 AU"
        }
    },
    "is_sentry_object": false
}